{"type":"FeatureCollection","name":"Langsa Baro's Village","crs":{"type":"name","properties":{"name":"urn:ogc:def:crs:OGC:1.3:CRS84"}},"features":[{"type":"Feature","properties":{"country_code":"id","country":"Indonesia","province_code":"id11","province":"Aceh","regency_code":"id1173","regency":"Kota Langsa","district_code":"id1173021","district":"Langsa Baro","source":"HDX-BPS-2020","date":"2019-12-20","valid_on":"2020-04-01"},"geometry":{"type":"MultiPolygon","coordinates":[[[[97.963094,4.484156],[97.9631085,4.4842102],[97.9632786,4.4848481],[97.9628278,4.4849539],[97.9618463,4.4852452],[97.9600956,4.4858015],[97.9590613,4.486013],[97.9589282,4.4863587],[97.9586104,4.4861454],[97.95747,4.4863566],[97.9574959,4.486809],[97.9575484,4.4871284],[97.9580256,4.4871823],[97.9585295,4.4870766],[97.9587859,4.4870415],[97.9587141,4.4878219],[97.9584935,4.4886206],[97.9583934,4.4895954],[97.9578954,4.4917235],[97.9573319,4.4944655],[97.9570958,4.4952959],[97.9571291,4.4954868],[97.9576773,4.4954427],[97.9583596,4.4954212],[97.9588505,4.49632],[97.9589989,4.4965919],[97.959056,4.4966989],[97.959174,4.4969266],[97.9593919,4.4976002],[97.9590889,4.4976501],[97.9590823,4.4979317],[97.9590889,4.4979515],[97.9590766,4.4986223],[97.9590519,4.4993232],[97.9589381,4.4998433],[97.9588152,4.5004303],[97.9586518,4.5013667],[97.9582198,4.5024864],[97.9579895,4.5036446],[97.9576258,4.5043022],[97.957407,4.5046139],[97.9572571,4.5050926],[97.9570179,4.5055413],[97.9570176,4.505706],[97.9569724,4.5060801],[97.9570911,4.5064694],[97.9572398,4.506784],[97.9572545,4.5069636],[97.9571797,4.5070832],[97.9568812,4.5072175],[97.9566151,4.5073304],[97.9565438,4.5077206],[97.9564374,4.5079688],[97.9566843,4.5083239],[97.9569666,4.5087501],[97.9568598,4.5092466],[97.9568947,4.509566],[97.9570358,4.5097791],[97.9573887,4.5102053],[97.9580244,4.5106675],[97.9580232,4.5114835],[97.958659,4.5118747],[97.9592949,4.5121949],[97.95933,4.5123724],[97.9593644,4.513082],[97.9594343,4.5136143],[97.9600003,4.5133668],[97.9607787,4.5129066],[97.9606362,4.5137225],[97.9605998,4.514432],[97.9607054,4.514787],[97.9608464,4.515071],[97.9612701,4.5154619],[97.9613402,4.5158877],[97.9613745,4.5165974],[97.9612675,4.5172713],[97.9611599,4.518371],[97.9612298,4.5189388],[97.9613,4.5192937],[97.9618637,4.5206427],[97.9620403,4.5207494],[97.9624646,4.5207145],[97.962995,4.5206089],[97.9640914,4.5203266],[97.965329,4.5201865],[97.9665664,4.5201173],[97.9680508,4.5204387],[97.9687925,4.5209719],[97.9697103,4.5219667],[97.9701691,4.5224995],[97.9704864,4.5231741],[97.9706266,4.5240258],[97.9706961,4.5248774],[97.9703424,4.5249833],[97.9694939,4.5249821],[97.9687517,4.5248392],[97.9672323,4.5242338],[97.9659954,4.5239482],[97.9655695,4.5251184],[97.9652494,4.5264662],[97.9650359,4.5274239],[97.9648943,4.5275301],[97.9643994,4.5274939],[97.9635864,4.5274218],[97.9629499,4.5274918],[97.9625248,4.5280944],[97.9623475,4.5284489],[97.9623823,4.5288747],[97.9626289,4.5294782],[97.962699,4.5299041],[97.9623449,4.5302584],[97.9619344,4.5307077],[97.9596157,4.5280658],[97.9546581,4.5242768],[97.9546581,4.5231558],[97.9542697,4.5225455],[97.9539004,4.5227987],[97.9537211,4.5228304],[97.9536288,4.5228303],[97.9530307,4.5227337],[97.9529053,4.5226874],[97.9524305,4.5223709],[97.9521246,4.5220333],[97.9521562,4.5217168],[97.95242,4.5213686],[97.9528947,4.5210733],[97.9533061,4.5207146],[97.9535488,4.5204825],[97.9536015,4.520282],[97.9535427,4.5199278],[97.9534,4.519568],[97.951589,4.51714],[97.950123,4.515406],[97.948569,4.51497],[97.94641,4.514707],[97.944598,4.513838],[97.943477,4.512278],[97.9420107,4.5101287],[97.9416995,4.5100099],[97.9397744,4.5092115],[97.9390344,4.5083724],[97.937172,4.50639],[97.933374,4.503974],[97.928178,4.501891],[97.922803,4.499103],[97.909242,4.48931],[97.90815,4.487442],[97.908493,4.47767],[97.9087921,4.4602006],[97.9088861,4.459522],[97.9088183,4.4586672],[97.9088897,4.4544922],[97.9086183,4.4504798],[97.9085855,4.4502656],[97.9084014,4.4501955],[97.908183,4.4501119],[97.9075549,4.4497167],[97.9072069,4.4496729],[97.907068,4.4497095],[97.9070859,4.4496802],[97.907214,4.4496191],[97.9073174,4.449421],[97.907279,4.4492355],[97.9072019,4.449119],[97.9071035,4.4488861],[97.9071208,4.4487783],[97.9074204,4.4481157],[97.9075174,4.4478133],[97.9075564,4.4475504],[97.9076426,4.4473694],[97.9077889,4.447167],[97.9079437,4.4470638],[97.9081972,4.4470124],[97.9083733,4.4470256],[97.9084177,4.44706],[97.9087936,4.4474229],[97.9088919,4.4477463],[97.9088615,4.4480049],[97.9088012,4.4481126],[97.9085991,4.448302],[97.9083754,4.4484741],[97.9082077,4.4486291],[97.9081646,4.4487281],[97.9081772,4.4489135],[97.908353,4.4491078],[97.9086406,4.4492763],[97.9088809,4.4494448],[97.9090051,4.4496907],[97.9091209,4.4497901],[97.9092798,4.4497903],[97.9093829,4.4497517],[97.9095484,4.4495759],[97.9097235,4.4493609],[97.9101466,4.4487788],[97.9104686,4.4484998],[97.9108809,4.4482092],[97.9111747,4.4480934],[97.9117622,4.4480311],[97.9118593,4.4480349],[97.9127145,4.4480372],[97.9129861,4.4480311],[97.9133154,4.4479466],[97.913765,4.4477285],[97.9140854,4.4477329],[97.9142278,4.4478709],[97.9142812,4.4481691],[97.9142812,4.4484272],[97.9141566,4.4486409],[97.9139474,4.4487432],[97.9136912,4.4487389],[97.9134846,4.4486765],[97.9133201,4.4486469],[97.9131196,4.4487102],[97.9126976,4.4489739],[97.9121617,4.4494047],[97.9119827,4.4495957],[97.9119764,4.4500538],[97.9119846,4.450206],[97.9119674,4.450498],[97.9118487,4.4506237],[97.911758,4.4507495],[97.9117577,4.4509104],[97.911876,4.4510574],[97.9120013,4.4511066],[97.9125379,4.4511354],[97.9130534,4.45129],[97.9134741,4.4513443],[97.9140289,4.4513964],[97.914463,4.4514736],[97.9154224,4.4516013],[97.9158507,4.4517008],[97.9160717,4.4517113],[97.9164188,4.4517216],[97.9166558,4.451687],[97.9168372,4.4515684],[97.9171024,4.4513309],[97.9172279,4.4512472],[97.9176044,4.4511358],[97.9177021,4.4510381],[97.9177651,4.4508633],[97.9177793,4.4506884],[97.9177657,4.4504716],[97.9178216,4.4503947],[97.9180186,4.4503858],[97.9182466,4.4504093],[97.9184549,4.4502715],[97.9186721,4.4501652],[97.9188394,4.4501444],[97.9190415,4.4501797],[97.9191807,4.4503058],[97.9193406,4.4505578],[97.919511,4.4507114],[97.9196788,4.4508475],[97.9199054,4.4510237],[97.9202514,4.4513164],[97.9203917,4.4514561],[97.9205521,4.4516051],[97.9207139,4.4516171],[97.9208892,4.4516095],[97.9210971,4.4515233],[97.9212499,4.4515825],[97.9213787,4.4516714],[97.9216152,4.4518652],[97.9218607,4.4521758],[97.9219747,4.4523479],[97.9220967,4.4525516],[97.9222956,4.4529264],[97.9223747,4.4530511],[97.9225958,4.4533629],[97.9227583,4.4536831],[97.9229825,4.4540431],[97.9230573,4.4541268],[97.9231785,4.4542912],[97.9232919,4.4544696],[97.9233582,4.4546035],[97.9234327,4.4547766],[97.9234404,4.4548592],[97.9234952,4.454938],[97.9236519,4.4549933],[97.9238532,4.4549433],[97.9239891,4.4549308],[97.9241341,4.4550019],[97.9242006,4.4550728],[97.9242593,4.4551752],[97.9242551,4.4553129],[97.9241726,4.4554898],[97.9240626,4.4556352],[97.9240702,4.4557768],[97.9241014,4.4558949],[97.9241562,4.4559698],[97.9242881,4.4559711],[97.9243875,4.4559662],[97.9244777,4.4559033],[97.924637,4.4556999],[97.9246938,4.4556146],[97.9247573,4.4555047],[97.9248589,4.455298],[97.9248787,4.4551643],[97.9248083,4.454991],[97.9246981,4.4548771],[97.9245109,4.4546601],[97.9243819,4.4544396],[97.9243546,4.4543176],[97.9243315,4.4540067],[97.9244103,4.4537786],[97.924532,4.4536214],[97.9246731,4.4536374],[97.9249436,4.4537736],[97.9254722,4.4540556],[97.9260478,4.4544814],[97.9262553,4.4546902],[97.9263414,4.4548241],[97.9263604,4.4551822],[97.9264387,4.4552531],[97.926674,4.4552416],[97.9267829,4.4551247],[97.9268861,4.454939],[97.9269688,4.4546952],[97.9270747,4.4546127],[97.9272551,4.4546051],[97.9274039,4.4546643],[97.9275762,4.4548023],[97.9278192,4.4551932],[97.927994,4.4554637],[97.9280844,4.4556311],[97.9282211,4.4559344],[97.9283581,4.4562907],[97.9284653,4.4565013],[97.928667,4.4568695],[97.928757,4.4569601],[97.9288588,4.4570035],[97.9289804,4.4569919],[97.9290746,4.4569212],[97.9291375,4.4568072],[97.9292083,4.4566145],[97.9292439,4.4564218],[97.929338,4.4563668],[97.9295144,4.4563592],[97.9297535,4.4564304],[97.9299023,4.456525],[97.9300118,4.4567377],[97.9300271,4.4569698],[97.9300699,4.4572099],[97.9301435,4.4573974],[97.9302459,4.4574856],[97.9303791,4.4575369],[97.9307712,4.4574824],[97.9308967,4.4574236],[97.9310772,4.4573019],[97.9312186,4.457125],[97.9313992,4.4569364],[97.9315444,4.4568461],[97.9318266,4.4568347],[97.9320022,4.4568623],[97.9321122,4.4568796],[97.9322656,4.4569141],[97.9324223,4.4570127],[97.9324887,4.457119],[97.9324911,4.4572191],[97.9324852,4.4573266],[97.9324111,4.4575416],[97.9323704,4.4576382],[97.9323702,4.4577719],[97.9324719,4.4579059],[97.9326992,4.4579455],[97.9327972,4.4579693],[97.9328912,4.4580206],[97.9329185,4.458115],[97.9329183,4.4582409],[97.9328319,4.4583943],[97.9327296,4.4586302],[97.9326823,4.458819],[97.9327173,4.4590197],[97.9328387,4.4590907],[97.9329328,4.4590947],[97.933172,4.4590597],[97.9332813,4.4590282],[97.9332966,4.4590323],[97.9333008,4.4590226],[97.9334034,4.4589931],[97.9335052,4.4590129],[97.9336188,4.4590761],[97.9337952,4.4592704],[97.9338889,4.4593912],[97.9339944,4.4595999],[97.9340523,4.459807],[97.934084,4.4599856],[97.9340742,4.4601725],[97.934058,4.4602713],[97.9339472,4.4603989],[97.9335498,4.4607245],[97.9335809,4.4609528],[97.9338897,4.461563],[97.9338122,4.4616172],[97.9335766,4.4617055],[97.9332266,4.46173],[97.9328068,4.4617698],[97.9326642,4.4618665],[97.932524,4.4621912],[97.9323837,4.4625528],[97.9324201,4.4628038],[97.9325155,4.462959],[97.9326994,4.4629962],[97.9330889,4.4632404],[97.9333119,4.4635146],[97.9334854,4.463743],[97.9336321,4.4640238],[97.933782,4.4642438],[97.9338246,4.4642999],[97.93422,4.4647282],[97.9342417,4.4647482],[97.9343813,4.464837],[97.934499,4.4648298],[97.9345507,4.4646896],[97.9345291,4.4643721],[97.9344267,4.4639733],[97.9343093,4.4637737],[97.934258,4.463626],[97.9342068,4.4634118],[97.9342512,4.4632495],[97.9345605,4.462962],[97.9345608,4.4627922],[97.9346789,4.4625044],[97.9348559,4.4622241],[97.9350185,4.4621106],[97.9352922,4.4621671],[97.9354803,4.4622381],[97.9356042,4.4623547],[97.9357034,4.4624588],[97.9357933,4.4626281],[97.9357899,4.4627287],[97.9357615,4.4629546],[97.9358867,4.4631358],[97.9359847,4.4631556],[97.936118,4.4631047],[97.9361809,4.4630025],[97.9362007,4.4628608],[97.9361803,4.4626831],[97.9361935,4.4623926],[97.9362575,4.4622947],[97.9362621,4.462294],[97.9362603,4.4622904],[97.9363662,4.4622709],[97.9365465,4.4623145],[97.9367031,4.4624052],[97.936877,4.4625348],[97.9369971,4.4626401],[97.9374588,4.4630633],[97.937597,4.4631509],[97.9377761,4.4632448],[97.9379015,4.463245],[97.938027,4.4632137],[97.9381095,4.4631193],[97.9381607,4.4629306],[97.9381731,4.4624703],[97.9382282,4.462313],[97.9383695,4.4622463],[97.9384048,4.4622682],[97.9384713,4.4623094],[97.938607,4.4626028],[97.9387406,4.4628389],[97.9388349,4.462963],[97.9389563,4.4630655],[97.9391279,4.4633626],[97.9392182,4.4635616],[97.9392259,4.4636875],[97.9391904,4.4638567],[97.9391172,4.4639946],[97.939046,4.464174],[97.9389506,4.464436],[97.9387811,4.4649892],[97.9387847,4.4651623],[97.9388317,4.4652332],[97.9389218,4.4652569],[97.9390472,4.4652532],[97.9391179,4.46521],[97.9392043,4.4650606],[97.9393103,4.4649428],[97.9394359,4.4648564],[97.9396025,4.4648451],[97.9399103,4.4648492],[97.9401037,4.4649025],[97.9402042,4.4649401],[97.9402982,4.4649599],[97.9404081,4.464905],[97.9404632,4.4647438],[97.9404438,4.4645824],[97.9399543,4.4642237],[97.93979,4.4639992],[97.9398219,4.4636097],[97.9400382,4.4632279],[97.940203,4.4630279],[97.9403559,4.4629731],[97.940587,4.4631269],[97.9407907,4.4632531],[97.9410689,4.4633322],[97.9411902,4.4635251],[97.9411821,4.4636628],[97.9411036,4.4637414],[97.9408407,4.4639102],[97.94077,4.464036],[97.9408162,4.4645633],[97.9408709,4.4647483],[97.9409217,4.4648231],[97.9410001,4.4648586],[97.941055,4.4648312],[97.9411609,4.4647566],[97.9412629,4.4647489],[97.9413568,4.4648355],[97.9415019,4.4648594],[97.9418225,4.4648076],[97.9421452,4.4647406],[97.9423488,4.4647032],[97.9425491,4.4649312],[97.942786,4.4650661],[97.9429179,4.4651729],[97.9429623,4.4652556],[97.942863,4.4656759],[97.9430185,4.4663932],[97.9431013,4.4667174],[97.9432396,4.4672018],[97.9433819,4.4673958],[97.943453,4.4674362],[97.9434961,4.4674668],[97.9435383,4.4674846],[97.9436839,4.4674671],[97.9438446,4.4673171],[97.943954,4.467201],[97.9440136,4.4671444],[97.9440703,4.4670981],[97.9442402,4.4670208],[97.9444124,4.4669827],[97.9445269,4.4669814],[97.9446329,4.4669307],[97.9450548,4.4664289],[97.94515,4.4661192],[97.9451501,4.4660484],[97.9450754,4.4658446],[97.9450027,4.4657936],[97.9448617,4.4657558],[97.9447405,4.465707],[97.9446832,4.465656],[97.9446084,4.4655231],[97.9445931,4.4654058],[97.9446021,4.4652929],[97.9446464,4.4651889],[97.9447423,4.4650685],[97.9447657,4.4650209],[97.9447969,4.4647908],[97.9448312,4.4645955],[97.944823,4.4644412],[97.9448394,4.4643659],[97.9449718,4.4642776],[97.9450909,4.464249],[97.9453819,4.4643579],[97.9456044,4.464491],[97.9458554,4.4647348],[97.9458968,4.4651243],[97.9460859,4.4654477],[97.946282,4.4655631],[97.9464404,4.4658311],[97.946577,4.465953],[97.9467554,4.4660949],[97.9477378,4.4668178],[97.9479627,4.4668514],[97.9482674,4.4665862],[97.9483534,4.4665554],[97.9484328,4.4665687],[97.9485054,4.466664],[97.9488506,4.4673672],[97.9489564,4.4674382],[97.9490357,4.467456],[97.9495103,4.4670037],[97.949866,4.4666899],[97.9500073,4.4665515],[97.9500514,4.4665456],[97.9501219,4.4665605],[97.9501865,4.4666579],[97.9502333,4.4667878],[97.9502096,4.4669442],[97.9501388,4.467103],[97.9499898,4.4675328],[97.9499016,4.467816],[97.9498985,4.4680717],[97.9499289,4.4682007],[97.9501446,4.4684528],[97.9502907,4.4686629],[97.9503401,4.4688121],[97.9501594,4.4697574],[97.9501681,4.4698801],[97.9502238,4.470007],[97.9503236,4.4700986],[97.9505412,4.470099],[97.9505941,4.4700636],[97.9506501,4.4699752],[97.9507885,4.4698278],[97.9509681,4.469654],[97.9511182,4.4695627],[97.9514247,4.4694737],[97.9516123,4.4694247],[97.9518536,4.4693159],[97.952036,4.4692453],[97.9528036,4.469093],[97.9531155,4.4689518],[97.9533772,4.4688754],[97.9536153,4.4689082],[97.9537858,4.4689587],[97.9539298,4.4690297],[97.9541422,4.469188],[97.9542844,4.4693008],[97.9542579,4.4693738],[97.9541905,4.4696094],[97.9540445,4.4699909],[97.9539546,4.4703051],[97.9539879,4.470496],[97.954066,4.4705971],[97.9542785,4.4706648],[97.954435,4.4707211],[97.9549388,4.4712258],[97.9558335,4.4713468],[97.9562107,4.4717664],[97.9558919,4.472205],[97.9562095,4.4726445],[97.9564375,4.472861],[97.9566309,4.4731018],[97.957093,4.4736202],[97.9575197,4.4741631],[97.958294,4.4750623],[97.9590483,4.4759814],[97.9583513,4.4767189],[97.9568974,4.4783134],[97.9562342,4.4790638],[97.9559054,4.4794152],[97.9558418,4.4795193],[97.9561059,4.4796551],[97.9563391,4.4797535],[97.9564369,4.4798243],[97.9565722,4.4799499],[97.9568649,4.4802064],[97.9571523,4.4804247],[97.9573909,4.480523],[97.9574975,4.4805954],[97.9576078,4.4806704],[97.9577976,4.4807633],[97.9580416,4.4809379],[97.9581771,4.4810634],[97.9584103,4.4812435],[97.958676,4.4814127],[97.9589634,4.4815602],[97.9593323,4.4817024],[97.9595112,4.4817843],[97.9598313,4.4818665],[97.9599399,4.4818884],[97.9600221,4.4815705],[97.9602625,4.480267],[97.9612846,4.4803964],[97.9613494,4.4804016],[97.961357,4.4804279],[97.9614286,4.4806678],[97.9616132,4.4813599],[97.9617715,4.4819189],[97.9619301,4.4822385],[97.962115,4.4827177],[97.9625385,4.4832239],[97.9628028,4.4838363],[97.963094,4.484156]]]]}}]}