{"type":"FeatureCollection","name":"Batas Kota Langsa","crs":{"type":"name","properties":{"name":"urn:ogc:def:crs:OGC:1.3:CRS84"}},"features":[{"type":"Feature","properties":{"name":"Kota Langsa","type":"Batas Kota","regency":"Kota Langsa","province":"Aceh"},"geometry":{"type":"MultiPolygon","coordinates":[[[[98.045793,4.546477],[98.04449,4.54572],[98.043175,4.544957],[98.040311,4.540645],[98.041127,4.538688],[98.04161,4.536672],[98.046561,4.537125],[98.049887,4.538281],[98.050576,4.538521],[98.049722,4.540775],[98.049417,4.543384],[98.047941,4.545574],[98.045793,4.546477],[98.061559,4.56115],[98.056115,4.562763],[98.056401,4.560319],[98.055913,4.558824],[98.057542,4.557989],[98.059296,4.555392],[98.061764,4.555771],[98.064534,4.55786],[98.061559,4.56115],[98.007934,4.413639],[98.006537,4.414353],[98.001866,4.414414],[98.001796,4.414418],[97.999843,4.414526],[97.999408,4.412535],[97.99876,4.410757],[97.997901,4.410759],[97.997042,4.411045],[97.996255,4.411189],[97.993031,4.409985],[97.991098,4.409917],[97.989936,4.409778],[97.987589,4.409497],[97.985584,4.409501],[97.983865,4.409219],[97.982863,4.409079],[97.981532,4.40893],[97.98078,4.40886],[97.978595,4.408259],[97.977484,4.408119],[97.976375,4.40805],[97.974297,4.407769],[97.97136,4.406956],[97.96964,4.406532],[97.969032,4.406533],[97.968459,4.40657],[97.967886,4.406642],[97.967278,4.406892],[97.966921,4.407355],[97.966207,4.408211],[97.965566,4.409421],[97.965033,4.411023],[97.964571,4.412839],[97.964323,4.413871],[97.963898,4.415722],[97.963685,4.416398],[97.963614,4.417003],[97.96358,4.417715],[97.962828,4.417645],[97.962291,4.417539],[97.959999,4.417259],[97.958352,4.417262],[97.956777,4.417229],[97.95624,4.417301],[97.955704,4.417516],[97.95549,4.417943],[97.955206,4.419011],[97.955176,4.421395],[97.95507,4.422071],[97.954786,4.423068],[97.95461,4.424527],[97.95394,4.428619],[97.953835,4.430007],[97.953622,4.43047],[97.95305,4.430756],[97.95237,4.430828],[97.951832,4.430758],[97.950578,4.430369],[97.95022,4.430227],[97.948714,4.429163],[97.948391,4.429057],[97.945705,4.429062],[97.945133,4.429383],[97.944956,4.429917],[97.944957,4.430735],[97.945102,4.431162],[97.945139,4.431624],[97.945211,4.432051],[97.945684,4.434612],[97.945722,4.435537],[97.945723,4.436319],[97.94479,4.435361],[97.944503,4.434863],[97.944252,4.434614],[97.941091,4.430778],[97.940732,4.430423],[97.940517,4.430138],[97.94023,4.429854],[97.939438,4.428112],[97.939294,4.42765],[97.939006,4.427295],[97.938432,4.426549],[97.937282,4.424808],[97.936851,4.42431],[97.935417,4.423174],[97.934413,4.4225],[97.934125,4.422181],[97.933713,4.421165],[97.933548,4.420189],[97.933296,4.419798],[97.932828,4.418661],[97.932207,4.416401],[97.932142,4.415958],[97.932141,4.415531],[97.9316,4.414002],[97.931348,4.413113],[97.931311,4.412793],[97.930628,4.411478],[97.930303,4.410269],[97.930266,4.409878],[97.929775,4.408814],[97.923895,4.408392],[97.920281,4.410353],[97.915216,4.417382],[97.908432,4.424877],[97.903228,4.430987],[97.899381,4.435777],[97.899342,4.436759],[97.899728,4.437399],[97.899908,4.437711],[97.89997,4.437818],[97.900005,4.43815],[97.899748,4.438766],[97.89886,4.439195],[97.898474,4.439466],[97.898161,4.439533],[97.898007,4.440097],[97.898108,4.440867],[97.89788,4.441868],[97.897718,4.442305],[97.897543,4.442714],[97.897542,4.443227],[97.898154,4.444254],[97.899125,4.44523],[97.899653,4.445443],[97.900344,4.445581],[97.901017,4.445643],[97.901836,4.445593],[97.902347,4.445953],[97.902448,4.447082],[97.902293,4.447749],[97.902522,4.448318],[97.902709,4.448699],[97.903007,4.449238],[97.903312,4.45047],[97.903822,4.4516],[97.904588,4.452678],[97.905253,4.453039],[97.906174,4.452937],[97.906481,4.452579],[97.906278,4.451655],[97.906228,4.450577],[97.906678,4.449812],[97.907068,4.44971],[97.907207,4.449673],[97.907555,4.449717],[97.908183,4.450112],[97.908401,4.450196],[97.908586,4.450266],[97.908618,4.45048],[97.90889,4.454492],[97.908818,4.458667],[97.908886,4.459522],[97.908792,4.460201],[97.908493,4.47767],[97.90815,4.487442],[97.909242,4.48931],[97.922803,4.499103],[97.928178,4.501891],[97.933374,4.503974],[97.937172,4.50639],[97.939034,4.508372],[97.939774,4.509212],[97.9417,4.51001],[97.942011,4.510129],[97.943477,4.512278],[97.944598,4.513838],[97.94641,4.514707],[97.948569,4.51497],[97.950123,4.515406],[97.951589,4.51714],[97.9534,4.519568],[97.953543,4.519928],[97.953602,4.520282],[97.953549,4.520483],[97.953306,4.520715],[97.952895,4.521073],[97.95242,4.521369],[97.952156,4.521717],[97.952125,4.522033],[97.952431,4.522371],[97.952905,4.522687],[97.953031,4.522734],[97.953629,4.52283],[97.953721,4.52283],[97.9539,4.522799],[97.95427,4.522546],[97.954658,4.523156],[97.954658,4.524277],[97.959616,4.528066],[97.961934,4.530708],[97.963179,4.532126],[97.964137,4.533115],[97.965018,4.534024],[97.965814,4.534724],[97.968185,4.536811],[97.969672,4.538212],[97.970275,4.538781],[97.972984,4.54035],[97.974576,4.541273],[97.977635,4.543163],[97.97955,4.545526],[97.979782,4.546287],[97.98001,4.547033],[97.979993,4.54715],[97.979357,4.547797],[97.976948,4.551463],[97.97503,4.554377],[97.973845,4.557755],[97.973753,4.559161],[97.974958,4.561025],[97.976185,4.561168],[98.035741,4.533488],[98.035984,4.534474],[98.036156,4.535618],[98.036231,4.535961],[98.036333,4.536324],[98.03658,4.536945],[98.036772,4.537442],[98.037082,4.538246],[98.037357,4.538961],[98.037749,4.540078],[98.037856,4.540618],[98.037894,4.541057],[98.037888,4.541656],[98.037964,4.542276],[98.038065,4.542672],[98.038731,4.54449],[98.038816,4.54503],[98.038795,4.545399],[98.038704,4.545661],[98.038495,4.54588],[98.037883,4.546185],[98.037631,4.546233],[98.037325,4.546169],[98.037068,4.545961],[98.036701,4.54552],[98.03637,4.545121],[98.036027,4.544743],[98.035566,4.544233],[98.034965,4.543592],[98.034305,4.543232],[98.033924,4.543025],[98.032501,4.542524],[98.032465,4.542512],[98.031387,4.542303],[98.030646,4.54234],[98.029869,4.542517],[98.029268,4.542779],[98.02901,4.54288],[98.028715,4.542875],[98.028469,4.5428],[98.027009,4.541816],[98.026859,4.541528],[98.026768,4.541212],[98.02673,4.540661],[98.026757,4.539629],[98.026709,4.539068],[98.026575,4.538629],[98.026199,4.538116],[98.025491,4.537372],[98.025121,4.537175],[98.024515,4.537014],[98.023801,4.536966],[98.023138,4.536988],[98.022031,4.537025],[98.021911,4.537028],[98.021039,4.537052],[98.020572,4.537025],[98.020401,4.537051],[98.020116,4.537094],[98.019569,4.537354],[98.018775,4.537731],[98.018534,4.537731],[98.018174,4.537602],[98.01326,4.535399],[98.009462,4.534041],[98.00766,4.533495],[98.006898,4.533164],[98.006158,4.532618],[98.005064,4.531891],[98.003883,4.531314],[98.002617,4.530864],[98.001727,4.530661],[97.995,4.532469],[97.994088,4.532426],[97.993584,4.532276],[97.991942,4.531517],[97.990944,4.531228],[97.989925,4.531164],[97.989013,4.531303],[97.988219,4.531602],[97.986524,4.532961],[97.985956,4.533458],[97.985462,4.5338],[97.985017,4.53402],[97.984706,4.534185],[97.984352,4.534431],[97.983901,4.534923],[97.983971,4.537918],[97.984421,4.538351],[97.984754,4.538747],[97.985221,4.539495],[97.985312,4.539747],[97.985333,4.540062],[97.985269,4.540458],[97.984926,4.54111],[97.984078,4.542736],[97.983928,4.543249],[97.983917,4.543955],[97.984024,4.544864],[97.984169,4.546094],[97.984164,4.546298],[97.984099,4.546586],[97.983397,4.547886],[97.983174,4.548137],[97.982909,4.548396],[97.981632,4.549731],[97.980044,4.551736],[97.97896,4.553351],[97.977313,4.555795],[97.976581,4.556811],[97.976428,4.557065],[97.976334,4.557297],[97.976185,4.561168],[98.037261,4.530979],[98.035741,4.533488],[98.039128,4.527062],[98.037261,4.530979],[98.083722,4.535485],[98.0831,4.53664],[98.082349,4.537982],[98.081399,4.539346],[98.080123,4.540554],[98.078728,4.541656],[98.076153,4.54341],[98.074533,4.544672],[98.073803,4.545143],[98.073127,4.545474],[98.072376,4.545784],[98.071593,4.546126],[98.070853,4.546554],[98.07022,4.547068],[98.069576,4.547709],[98.068718,4.548586],[98.068179,4.549038],[98.0675,4.549458],[98.067071,4.549739],[98.066812,4.549998],[98.066694,4.550144],[98.066588,4.550298],[98.066537,4.550465],[98.066513,4.550653],[98.066504,4.550814],[98.066504,4.550917],[98.066522,4.551026],[98.066571,4.551191],[98.0666,4.551296],[98.066608,4.551368],[98.066595,4.551411],[98.066561,4.551442],[98.06652,4.551469],[98.066465,4.551474],[98.066423,4.551471],[98.066328,4.551439],[98.066262,4.551414],[98.066202,4.551407],[98.066167,4.551412],[98.066151,4.551427],[98.066133,4.551462],[98.066137,4.551526],[98.066154,4.551596],[98.066176,4.551704],[98.066201,4.551943],[98.066195,4.552038],[98.066174,4.552153],[98.066144,4.552221],[98.066076,4.552303],[98.065991,4.552391],[98.065914,4.552494],[98.065832,4.552597],[98.065746,4.552716],[98.065673,4.55282],[98.065594,4.552919],[98.065474,4.553041],[98.065352,4.553145],[98.065236,4.553225],[98.065141,4.553284],[98.065089,4.553293],[98.065006,4.553275],[98.064917,4.553235],[98.064764,4.553132],[98.064648,4.553042],[98.0645,4.552898],[98.064365,4.55274],[98.064308,4.552664],[98.064277,4.55258],[98.064259,4.552499],[98.064254,4.552418],[98.064249,4.552328],[98.064239,4.552269],[98.064227,4.552232],[98.064215,4.552214],[98.064182,4.55217],[98.064158,4.55213],[98.064148,4.552103],[98.064137,4.552072],[98.064128,4.552039],[98.064106,4.551985],[98.064056,4.551895],[98.064044,4.551854],[98.06404,4.5518],[98.064039,4.551729],[98.064044,4.551657],[98.064053,4.551564],[98.064065,4.551436],[98.064074,4.551297],[98.06408,4.551183],[98.064083,4.551076],[98.064084,4.550954],[98.064098,4.550828],[98.064131,4.550656],[98.064179,4.550493],[98.064255,4.550284],[98.064369,4.550127],[98.064415,4.55007],[98.064447,4.550032],[98.064527,4.549979],[98.064629,4.549937],[98.06468,4.549935],[98.064716,4.549944],[98.064747,4.549969],[98.064777,4.550021],[98.06478,4.550142],[98.064779,4.550279],[98.064772,4.550474],[98.064766,4.550605],[98.06477,4.550735],[98.064779,4.550814],[98.064806,4.550879],[98.064862,4.550939],[98.064941,4.550982],[98.065035,4.550991],[98.06515,4.550963],[98.06534,4.550872],[98.065492,4.550776],[98.065723,4.55063],[98.065891,4.550434],[98.06596,4.550212],[98.06596,4.549939],[98.065869,4.549645],[98.065644,4.549126],[98.065365,4.548581],[98.065081,4.548025],[98.064737,4.547314],[98.064265,4.546822],[98.063461,4.546319],[98.063064,4.546057],[98.062779,4.545763],[98.062484,4.545372],[98.062189,4.544902],[98.061835,4.544372],[98.061519,4.543987],[98.060816,4.543351],[98.060135,4.542838],[98.059555,4.542394],[98.059266,4.542094],[98.05903,4.5418],[98.058783,4.541362],[98.058348,4.540191],[98.058032,4.539512],[98.057866,4.539004],[98.05771,4.538549],[98.057383,4.538068],[98.0569,4.537565],[98.05565,4.536458],[98.055151,4.535987],[98.054776,4.535693],[98.0544,4.535495],[98.053783,4.535239],[98.053231,4.53502],[98.052517,4.534688],[98.051659,4.534169],[98.049084,4.532528],[98.047829,4.531747],[98.046954,4.531308],[98.046327,4.530971],[98.045436,4.53056],[98.044685,4.530249],[98.04424,4.5301],[98.043843,4.530003],[98.043414,4.529998],[98.042915,4.53003],[98.042164,4.5301],[98.041858,4.530068],[98.041499,4.52988],[98.040726,4.529308],[98.040249,4.528822],[98.039669,4.528036],[98.039385,4.527581],[98.039128,4.527062],[98.083722,4.535485],[98.07168,4.526817],[98.070587,4.526178],[98.069759,4.525982],[98.068858,4.525732],[98.068383,4.525432],[98.068065,4.525039],[98.068006,4.524328],[98.069547,4.523201],[98.070318,4.522668],[98.07097,4.522431],[98.071542,4.521984],[98.071978,4.514132],[98.071741,4.513421],[98.070674,4.512947],[98.068906,4.512756],[98.06558,4.512081],[98.063829,4.511656],[98.062654,4.511131],[98.062004,4.510981],[98.061393,4.511337],[98.060802,4.512203],[98.060338,4.513384],[98.059947,4.514924],[98.059683,4.516127],[98.059272,4.516591],[98.058692,4.517055],[98.058069,4.517425],[98.057468,4.51752],[98.057036,4.517488],[98.056751,4.517288],[98.056575,4.517029],[98.056645,4.515862],[98.056828,4.514469],[98.057053,4.513428],[98.05718,4.512739],[98.057081,4.512303],[98.05673,4.511782],[98.056097,4.511445],[98.054802,4.511248],[98.053705,4.511107],[98.053185,4.510924],[98.052988,4.510657],[98.052875,4.510235],[98.052904,4.509518],[98.05303,4.508899],[98.05348,4.508083],[98.053663,4.507365],[98.053762,4.506648],[98.053691,4.506114],[98.053269,4.505016],[98.052889,4.503835],[98.052735,4.502892],[98.052833,4.502316],[98.052988,4.501851],[98.053326,4.501444],[98.053888,4.501078],[98.054423,4.500951],[98.05507,4.500881],[98.05552,4.50067],[98.05597,4.500234],[98.056139,4.499812],[98.056111,4.499305],[98.056026,4.498771],[98.055843,4.498433],[98.055196,4.497603],[98.054774,4.496858],[98.054634,4.496197],[98.054648,4.495803],[98.054971,4.495395],[98.055365,4.495142],[98.056068,4.495226],[98.057222,4.495367],[98.05808,4.495395],[98.058516,4.495226],[98.058629,4.494692],[98.058192,4.493834],[98.057602,4.49261],[98.057588,4.491555],[98.057658,4.489318],[98.057315,4.481709],[98.057356,4.481401],[98.057756,4.480901],[98.058132,4.479601],[98.058081,4.479151],[98.058006,4.478951],[98.057772,4.478722],[98.057664,4.478574],[98.057624,4.478289],[98.057727,4.47787],[98.057735,4.477466],[98.057418,4.477339],[98.056785,4.477339],[98.056477,4.476786],[98.055773,4.476398],[98.05544,4.476113],[98.055127,4.475971],[98.048643,4.467702],[98.048249,4.467027],[98.047894,4.466431],[98.04778,4.466239],[98.047386,4.46592],[98.046992,4.465733],[98.046749,4.465377],[98.046602,4.465169],[98.046581,4.464334],[98.046404,4.464216],[98.046011,4.463939],[98.045897,4.463859],[98.045935,4.463522],[98.04616,4.463316],[98.046553,4.46322],[98.046723,4.463109],[98.046779,4.462753],[98.046663,4.46241],[98.046423,4.461703],[98.04646,4.460634],[98.046385,4.45979],[98.046156,4.459514],[98.04601,4.459339],[98.04541,4.458627],[98.045204,4.458158],[98.045279,4.457614],[98.045204,4.456883],[98.045503,4.456598],[98.045579,4.456526],[98.04601,4.455757],[98.045804,4.455363],[98.045579,4.454613],[98.045166,4.453732],[98.04526,4.453207],[98.045147,4.452269],[98.044735,4.451387],[98.044426,4.451207],[98.044146,4.451044],[98.043948,4.450964],[98.043814,4.450826],[98.043814,4.450479],[98.043881,4.450038],[98.043867,4.449798],[98.04368,4.449326],[98.043057,4.447569],[98.0431,4.446023],[98.043214,4.445443],[98.043209,4.444458],[98.043179,4.444251],[98.043123,4.443876],[98.043084,4.443606],[98.043032,4.443251],[98.043004,4.443064],[98.042944,4.44265],[98.042871,4.442158],[98.042761,4.441635],[98.042628,4.441009],[98.042559,4.440684],[98.042433,4.44009],[98.042302,4.439472],[98.042267,4.439308],[98.042328,4.438631],[98.042441,4.43805],[98.042492,4.437577],[98.042545,4.437085],[98.042485,4.435603],[98.04236,4.434256],[98.041938,4.433539],[98.041772,4.433207],[98.041558,4.432779],[98.041233,4.431048],[98.041077,4.430185],[98.040941,4.429437],[98.040825,4.428763],[98.040727,4.428189],[98.040493,4.426611],[98.040442,4.426268],[98.040284,4.425636],[98.039925,4.425287],[98.039208,4.424686],[98.038145,4.423716],[98.03753,4.423156],[98.036815,4.422735],[98.035505,4.421964],[98.033996,4.42112],[98.032604,4.420529],[98.030462,4.419677],[98.029899,4.419565],[98.02935,4.419523],[98.0289,4.419382],[98.028211,4.419016],[98.028056,4.418819],[98.027993,4.418636],[98.027932,4.418458],[98.027839,4.418189],[98.02779,4.418047],[98.027737,4.417895],[98.027687,4.417748],[98.027617,4.417545],[98.027508,4.41723],[98.027339,4.416949],[98.027001,4.416611],[98.026368,4.416316],[98.026144,4.416249],[98.025492,4.416055],[98.02495,4.415986],[98.023893,4.415851],[98.022795,4.415703],[98.022641,4.415683],[98.022272,4.415645],[98.021745,4.415591],[98.021544,4.41557],[98.021009,4.415486],[98.020081,4.415092],[98.018744,4.41436],[98.017689,4.413741],[98.017183,4.413108],[98.016874,4.412701],[98.011561,4.411261],[98.007934,4.413639],[98.045793,4.546477]],[[97.924068,4.455736],[97.92407,4.455777],[97.924101,4.455895],[97.924156,4.45597],[97.924288,4.455971],[97.924388,4.455966],[97.924478,4.455903],[97.924511,4.45586],[97.924426,4.455747],[97.924317,4.455726],[97.924068,4.455736]],[[97.924761,4.454942],[97.92477,4.455088],[97.924816,4.455361],[97.924822,4.455372],[97.924859,4.455298],[97.924879,4.455164],[97.924808,4.454991],[97.924761,4.454942]],[[97.930078,4.457229],[97.930144,4.457397],[97.930211,4.457456],[97.930206,4.457416],[97.930078,4.457229]],[[97.93237,4.457772],[97.932472,4.457906],[97.932665,4.45794],[97.932671,4.457906],[97.932673,4.457892],[97.932607,4.457783],[97.932476,4.457696],[97.93237,4.457659],[97.93237,4.457772]],[[97.932384,4.462553],[97.93242,4.462804],[97.932516,4.462959],[97.932699,4.462996],[97.932772,4.463042],[97.932764,4.462922],[97.932846,4.462509],[97.932976,4.462377],[97.93315,4.462332],[97.933346,4.462331],[97.933662,4.462296],[97.933848,4.462251],[97.933978,4.462162],[97.933876,4.461681],[97.933861,4.461583],[97.933812,4.461617],[97.933577,4.461706],[97.933227,4.46173],[97.932807,4.46177],[97.932664,4.461867],[97.932524,4.462191],[97.932384,4.462553]],[[97.93355,4.460725],[97.933581,4.460953],[97.933844,4.461473],[97.933834,4.46141],[97.933831,4.461386],[97.933928,4.461254],[97.934047,4.461166],[97.934112,4.461056],[97.934222,4.460984],[97.9343,4.460833],[97.934294,4.460573],[97.934227,4.460289],[97.934111,4.460138],[97.934078,4.460096],[97.934074,4.460173],[97.934058,4.460271],[97.933947,4.460399],[97.93355,4.460725]],[[97.934371,4.463955],[97.934381,4.464132],[97.934499,4.464253],[97.934427,4.463973],[97.934401,4.463929],[97.934371,4.463955]],[[97.938781,4.464989],[97.938785,4.465162],[97.938832,4.465233],[97.938905,4.465252],[97.938919,4.465164],[97.939054,4.464935],[97.939301,4.464009],[97.939197,4.463826],[97.93919,4.463857],[97.939117,4.463995],[97.939046,4.464174],[97.938951,4.464436],[97.938781,4.464989]],[[97.939797,4.464436],[97.940276,4.464955],[97.940298,4.46496],[97.940408,4.464905],[97.940463,4.464744],[97.940444,4.464582],[97.939954,4.464224],[97.939874,4.464113],[97.939797,4.464436]],[[97.94077,4.464036],[97.940816,4.464563],[97.940849,4.464675],[97.940855,4.464552],[97.940991,4.464375],[97.941288,4.464178],[97.941261,4.464015],[97.940951,4.463839],[97.940841,4.46391],[97.94077,4.464036]],[[97.942866,4.465692],[97.942901,4.465853],[97.94292,4.465749],[97.942866,4.465692]],[[97.944559,4.465899],[97.944578,4.466127],[97.944754,4.46631],[97.944946,4.4663],[97.945069,4.466381],[97.94515,4.466119],[97.94515,4.466048],[97.945075,4.465845],[97.945003,4.465794],[97.944862,4.465756],[97.94485,4.465751],[97.944829,4.465757],[97.944777,4.465722],[97.944741,4.465707],[97.944692,4.465664],[97.944688,4.465661],[97.944559,4.465899]],[[97.949901,4.467901],[97.949982,4.467731],[97.950009,4.467617],[97.950024,4.467555],[97.950092,4.467274],[97.950087,4.467252],[97.94999,4.467533],[97.949902,4.467816],[97.949901,4.467901]],[[97.95399,4.47018],[97.954085,4.469886],[97.954045,4.469991],[97.95399,4.47018]],[[97.954136,4.469753],[97.954136,4.469753],[97.954729,4.469967],[97.954136,4.469753]],[[97.955842,4.479519],[97.956106,4.479655],[97.956339,4.479754],[97.956437,4.479824],[97.956572,4.47995],[97.956865,4.480206],[97.957152,4.480425],[97.957391,4.480523],[97.957498,4.480595],[97.957608,4.48067],[97.957798,4.480763],[97.958042,4.480938],[97.958177,4.481063],[97.95841,4.481244],[97.958676,4.481413],[97.958963,4.48156],[97.959332,4.481702],[97.959511,4.481784],[97.959831,4.481867],[97.95994,4.481888],[97.960022,4.481571],[97.960244,4.480367],[97.960035,4.480353],[97.959853,4.481147],[97.959745,4.481616],[97.959725,4.481608],[97.959654,4.48158],[97.959578,4.48155],[97.959511,4.481516],[97.959308,4.481408],[97.959092,4.481294],[97.958507,4.480984],[97.958395,4.480922],[97.957803,4.480597],[97.957555,4.480461],[97.957293,4.480318],[97.957142,4.480172],[97.956121,4.479185],[97.955905,4.479415],[97.955842,4.479519]],[[97.955892,4.472205],[97.955927,4.472254],[97.956067,4.472067],[97.956023,4.472025],[97.955892,4.472205]],[[97.956437,4.507969],[97.956684,4.508324],[97.95677,4.508453],[97.956806,4.508203],[97.956859,4.507836],[97.95686,4.507832],[97.956844,4.507814],[97.956832,4.507799],[97.956584,4.5075],[97.956544,4.507721],[97.956437,4.507969]],[[97.95686,4.509247],[97.956895,4.509566],[97.957036,4.509779],[97.957389,4.510205],[97.958024,4.510668],[97.958023,4.511484],[97.958659,4.511875],[97.959223,4.512158],[97.959155,4.511341],[97.959153,4.511307],[97.957843,4.510511],[97.957846,4.510399],[97.957853,4.510116],[97.957863,4.509734],[97.957861,4.509733],[97.957575,4.509527],[97.957409,4.509408],[97.957325,4.509347],[97.95728,4.509305],[97.957241,4.509268],[97.957168,4.509186],[97.957113,4.509123],[97.956968,4.508917],[97.956938,4.508883],[97.95686,4.509247]],[[97.956972,4.50608],[97.957031,4.506273],[97.957081,4.506226],[97.957163,4.506147],[97.957129,4.506061],[97.95701,4.505766],[97.956972,4.50608]],[[97.957096,4.495296],[97.957129,4.495487],[97.957677,4.495443],[97.95836,4.495421],[97.958851,4.49632],[97.958999,4.496592],[97.959056,4.496699],[97.959071,4.496728],[97.959018,4.496528],[97.959002,4.49647],[97.958648,4.495801],[97.958549,4.495612],[97.958497,4.495515],[97.958348,4.495232],[97.958285,4.495113],[97.95824,4.495039],[97.958205,4.49496],[97.958155,4.494968],[97.957915,4.495008],[97.957229,4.495068],[97.957159,4.495074],[97.957096,4.495296]],[[97.957523,4.486976],[97.957548,4.487128],[97.958026,4.487182],[97.95853,4.487077],[97.958606,4.487066],[97.958609,4.487049],[97.958645,4.486871],[97.957864,4.487034],[97.957853,4.487036],[97.957801,4.487026],[97.957523,4.486976]],[[97.958167,4.502754],[97.958464,4.502382],[97.958942,4.502038],[97.959284,4.501792],[97.959817,4.501409],[97.960155,4.501191],[97.96017,4.501133],[97.960178,4.501103],[97.960207,4.500987],[97.960172,4.500842],[97.960174,4.500827],[97.960158,4.50077],[97.960121,4.500632],[97.959988,4.500143],[97.959684,4.500228],[97.959516,4.500261],[97.959258,4.500321],[97.958999,4.500394],[97.958812,4.500449],[97.958652,4.501367],[97.95822,4.502486],[97.958167,4.502754]],[[97.958191,4.476895],[97.95824,4.476843],[97.958356,4.476721],[97.958356,4.476721],[97.958864,4.476185],[97.958864,4.476184],[97.958861,4.47618],[97.958351,4.476719],[97.958191,4.476895]],[[97.95934,4.512571],[97.959364,4.513082],[97.959434,4.513614],[97.96,4.513367],[97.960388,4.513137],[97.960472,4.512544],[97.960561,4.511915],[97.960562,4.511913],[97.960429,4.511985],[97.960345,4.512031],[97.959552,4.512457],[97.95934,4.512571]],[[97.9606,4.514432],[97.960705,4.514787],[97.960846,4.515071],[97.961153,4.515354],[97.961099,4.514469],[97.961098,4.514468],[97.960748,4.514042],[97.960638,4.513897],[97.960628,4.513883],[97.9606,4.514432]],[[97.96116,4.518374],[97.96123,4.518939],[97.9613,4.519294],[97.961864,4.520643],[97.96204,4.520749],[97.962465,4.520715],[97.962995,4.520609],[97.964091,4.520327],[97.965329,4.520187],[97.966566,4.520117],[97.968051,4.520439],[97.968793,4.520972],[97.96971,4.521967],[97.97014,4.522466],[97.969934,4.521637],[97.969801,4.521106],[97.969748,4.521057],[97.968077,4.519528],[97.967881,4.519339],[97.96783,4.51929],[97.967683,4.519268],[97.966384,4.518985],[97.96631,4.518987],[97.964645,4.519019],[97.964372,4.519024],[97.963568,4.519219],[97.961627,4.519689],[97.961626,4.519685],[97.961404,4.519073],[97.961396,4.519052],[97.96116,4.518374]],[[97.962916,4.483961],[97.962916,4.483961],[97.963826,4.48361],[97.962916,4.483961]]],[[[98.037757,4.536374],[98.037757,4.536284],[98.037762,4.536194],[98.037767,4.536103],[98.037786,4.536076],[98.037818,4.536029],[98.037875,4.53596],[98.037938,4.535895],[98.037965,4.535867],[98.038001,4.53583],[98.038083,4.535794],[98.038171,4.535787],[98.038261,4.535794],[98.038334,4.535845],[98.038406,4.5359],[98.038478,4.535954],[98.038551,4.536007],[98.038574,4.536026],[98.038621,4.536064],[98.038686,4.536126],[98.038751,4.536189],[98.038816,4.536252],[98.038856,4.536291],[98.03888,4.536315],[98.038912,4.5364],[98.038937,4.536486],[98.038936,4.536576],[98.038911,4.536662],[98.038873,4.536744],[98.038825,4.53682],[98.038785,4.536901],[98.038744,4.536982],[98.038721,4.537068],[98.038699,4.537151],[98.038671,4.537165],[98.038619,4.537191],[98.038544,4.537177],[98.038533,4.537175],[98.038446,4.537151],[98.03838,4.537101],[98.038311,4.537043],[98.038248,4.536979],[98.038199,4.536903],[98.038145,4.53683],[98.038126,4.536806],[98.038089,4.536759],[98.038062,4.536743],[98.038011,4.536715],[98.037937,4.536665],[98.037868,4.536606],[98.037807,4.53654],[98.037764,4.536464],[98.037757,4.536374]]],[[[98.039994,4.540891],[98.039996,4.540801],[98.039999,4.54071],[98.040018,4.540623],[98.040046,4.540537],[98.040072,4.540451],[98.040103,4.540366],[98.040134,4.540281],[98.040169,4.540197],[98.040204,4.540114],[98.04024,4.540031],[98.040269,4.539946],[98.040291,4.539858],[98.040321,4.539773],[98.040352,4.539688],[98.040382,4.539603],[98.040414,4.539518],[98.040449,4.539435],[98.040484,4.539352],[98.040519,4.539268],[98.040556,4.539185],[98.040593,4.539103],[98.040631,4.539021],[98.040668,4.538939],[98.040706,4.538857],[98.040743,4.538774],[98.040775,4.538689],[98.040807,4.538605],[98.040839,4.53852],[98.04087,4.538436],[98.040902,4.538351],[98.040934,4.538266],[98.040965,4.538182],[98.040997,4.538097],[98.041028,4.538012],[98.041059,4.537927],[98.041084,4.537841],[98.041098,4.537756],[98.041099,4.537751],[98.041113,4.537662],[98.041127,4.537573],[98.041142,4.537483],[98.041157,4.537394],[98.041173,4.537305],[98.041189,4.537216],[98.041212,4.537129],[98.041247,4.537046],[98.041283,4.536963],[98.041318,4.53688],[98.041349,4.536795],[98.041398,4.536721],[98.041436,4.536684],[98.041462,4.536657],[98.041536,4.536605],[98.041617,4.536569],[98.041704,4.536544],[98.041794,4.536541],[98.041884,4.53654],[98.041974,4.536543],[98.042064,4.536545],[98.042154,4.536545],[98.042244,4.536545],[98.042334,4.536546],[98.042424,4.536549],[98.042515,4.536551],[98.042604,4.53656],[98.042693,4.536574],[98.042783,4.536582],[98.042873,4.536586],[98.042962,4.536597],[98.043052,4.536607],[98.043142,4.536614],[98.043232,4.536622],[98.043321,4.536629],[98.043411,4.536637],[98.043501,4.536645],[98.043591,4.536655],[98.04368,4.536665],[98.04377,4.536676],[98.04386,4.536682],[98.043949,4.536688],[98.044039,4.536694],[98.044125,4.536723],[98.044209,4.536754],[98.044296,4.536779],[98.044383,4.536802],[98.04447,4.536826],[98.044554,4.536857],[98.044638,4.53689],[98.044712,4.536942],[98.044792,4.536982],[98.044876,4.537017],[98.044964,4.537016],[98.045054,4.537007],[98.045144,4.537007],[98.045234,4.537007],[98.045324,4.537007],[98.045413,4.537019],[98.045502,4.537035],[98.045538,4.537044],[98.045589,4.537057],[98.045676,4.537081],[98.045765,4.537098],[98.045853,4.537115],[98.045942,4.537127],[98.046032,4.537127],[98.046122,4.537127],[98.046213,4.537127],[98.046303,4.537127],[98.046392,4.537131],[98.04648,4.537151],[98.046554,4.537199],[98.046624,4.537256],[98.0467,4.537305],[98.046778,4.537347],[98.046866,4.537367],[98.046955,4.537379],[98.047045,4.537383],[98.047135,4.537387],[98.047225,4.537395],[98.047315,4.537404],[98.047404,4.537413],[98.047494,4.537425],[98.047583,4.537437],[98.047671,4.537454],[98.047757,4.537481],[98.047843,4.537511],[98.047928,4.53754],[98.047958,4.537551],[98.048013,4.53757],[98.048099,4.537596],[98.048188,4.537611],[98.048276,4.537629],[98.048363,4.537652],[98.048447,4.537684],[98.048531,4.537718],[98.048614,4.537752],[98.048697,4.537788],[98.04878,4.537825],[98.04886,4.537864],[98.048938,4.537911],[98.049015,4.537957],[98.0491,4.537989],[98.049184,4.538021],[98.049268,4.538053],[98.049352,4.538086],[98.049436,4.538118],[98.049521,4.538149],[98.049606,4.538179],[98.049688,4.538217],[98.049765,4.538262],[98.04984,4.538312],[98.049915,4.538364],[98.049989,4.538415],[98.05001,4.538488],[98.049992,4.538577],[98.049928,4.53864],[98.049863,4.538702],[98.0498,4.538767],[98.049674,4.538896],[98.049618,4.538967],[98.049564,4.539039],[98.04951,4.539112],[98.049456,4.539184],[98.049421,4.539265],[98.049405,4.539354],[98.049405,4.539444],[98.049405,4.539535],[98.049402,4.539625],[98.049398,4.539716],[98.049394,4.539806],[98.049373,4.539893],[98.049344,4.539979],[98.049326,4.540022],[98.049309,4.540062],[98.049265,4.540141],[98.049221,4.54022],[98.049177,4.540299],[98.049121,4.540369],[98.049058,4.540432],[98.049027,4.540517],[98.049025,4.540607],[98.049029,4.540697],[98.049039,4.540787],[98.049054,4.540876],[98.049057,4.540895],[98.049069,4.540965],[98.049083,4.541054],[98.049097,4.541144],[98.04911,4.541233],[98.049122,4.541323],[98.049127,4.541413],[98.049133,4.541504],[98.049138,4.541594],[98.049144,4.541684],[98.049154,4.541774],[98.049163,4.541864],[98.049173,4.541954],[98.049182,4.542044],[98.049179,4.542134],[98.049175,4.542225],[98.049172,4.542315],[98.049147,4.542401],[98.049113,4.542485],[98.049088,4.542571],[98.049064,4.542658],[98.049033,4.542744],[98.049003,4.542829],[98.048972,4.542914],[98.048942,4.542999],[98.048929,4.543088],[98.048918,4.543178],[98.048894,4.543265],[98.04887,4.543352],[98.048869,4.543355],[98.048842,4.543438],[98.048807,4.543521],[98.048768,4.543603],[98.048727,4.543684],[98.048686,4.543764],[98.048662,4.543795],[98.048631,4.543836],[98.048576,4.543907],[98.048521,4.543979],[98.048457,4.544043],[98.048398,4.544111],[98.048343,4.544183],[98.048289,4.544255],[98.048234,4.544327],[98.04818,4.544399],[98.048125,4.544471],[98.048064,4.544537],[98.048002,4.544603],[98.047942,4.544671],[98.047883,4.544739],[98.047823,4.544807],[98.047764,4.544875],[98.047703,4.544942],[98.047642,4.545008],[98.047581,4.545074],[98.047519,4.545141],[98.047457,4.545206],[98.047396,4.545272],[98.047332,4.545337],[98.047268,4.5454],[98.047203,4.545462],[98.047135,4.545522],[98.047063,4.545576],[98.046986,4.545623],[98.046907,4.545665],[98.046827,4.545708],[98.046746,4.545748],[98.046663,4.545783],[98.046582,4.545821],[98.04651,4.545875],[98.046436,4.545928],[98.046362,4.545979],[98.046288,4.546031],[98.046214,4.546083],[98.04614,4.546134],[98.046066,4.546186],[98.045987,4.546228],[98.045906,4.546269],[98.045823,4.546298],[98.045733,4.546302],[98.045643,4.546293],[98.045554,4.546283],[98.045465,4.54627],[98.045378,4.546245],[98.045291,4.54622],[98.045217,4.546171],[98.045146,4.546115],[98.045083,4.54605],[98.045023,4.545983],[98.044977,4.545906],[98.044954,4.54582],[98.044944,4.54573],[98.044941,4.54564],[98.044929,4.545554],[98.04486,4.545495],[98.044779,4.545473],[98.044689,4.545482],[98.044603,4.545508],[98.044517,4.545535],[98.044442,4.545557],[98.044431,4.545561],[98.044344,4.545585],[98.044255,4.545596],[98.044165,4.5456],[98.044076,4.545591],[98.043989,4.545566],[98.043907,4.545529],[98.043828,4.545486],[98.043754,4.545435],[98.043738,4.545426],[98.043674,4.545393],[98.043591,4.545359],[98.043507,4.545327],[98.043418,4.545314],[98.043328,4.545308],[98.043241,4.545293],[98.043165,4.545244],[98.043108,4.545177],[98.043063,4.545099],[98.043011,4.545025],[98.042953,4.544956],[98.042889,4.544892],[98.04287,4.544878],[98.042798,4.544823],[98.042726,4.544769],[98.042654,4.544715],[98.042582,4.54466],[98.042518,4.544597],[98.042455,4.544532],[98.042391,4.544468],[98.042327,4.544404],[98.042264,4.54434],[98.0422,4.544276],[98.042147,4.544203],[98.042096,4.544129],[98.042045,4.544054],[98.041993,4.54398],[98.041942,4.543906],[98.041891,4.543831],[98.041839,4.543757],[98.041788,4.543683],[98.041736,4.543609],[98.041684,4.543535],[98.041632,4.543461],[98.04158,4.543387],[98.041528,4.543313],[98.041476,4.54324],[98.041424,4.543166],[98.041372,4.543092],[98.04132,4.543018],[98.041265,4.542946],[98.041209,4.542875],[98.041154,4.542804],[98.041098,4.542733],[98.041042,4.542661],[98.040987,4.54259],[98.040931,4.542519],[98.040875,4.542448],[98.04082,4.542377],[98.040764,4.542306],[98.04071,4.542233],[98.040656,4.542161],[98.040602,4.542088],[98.040548,4.542016],[98.040494,4.541943],[98.04044,4.541871],[98.040386,4.541798],[98.040339,4.541722],[98.040297,4.541642],[98.040256,4.541561],[98.040215,4.541481],[98.040173,4.541401],[98.040132,4.54132],[98.040096,4.541238],[98.04007,4.541151],[98.040043,4.541065],[98.040017,4.540978],[98.040004,4.540928],[98.039994,4.540891]]],[[[98.055688,4.561466],[98.055692,4.561376],[98.055701,4.561286],[98.055725,4.561199],[98.055765,4.561118],[98.055807,4.561038],[98.055846,4.560957],[98.055885,4.560875],[98.055925,4.560794],[98.055964,4.560713],[98.056004,4.560631],[98.056043,4.56055],[98.05608,4.560467],[98.056116,4.560385],[98.056137,4.560297],[98.056151,4.560208],[98.056165,4.560118],[98.056164,4.560028],[98.056159,4.559938],[98.05615,4.559848],[98.056115,4.559765],[98.056068,4.559688],[98.056024,4.559609],[98.055984,4.559528],[98.05595,4.559444],[98.05592,4.559359],[98.055902,4.55927],[98.055902,4.559269],[98.055895,4.55918],[98.05589,4.55909],[98.055886,4.559],[98.055883,4.558909],[98.055888,4.558819],[98.055905,4.558731],[98.055933,4.558645],[98.055976,4.558565],[98.056028,4.558492],[98.05608,4.558418],[98.05614,4.55835],[98.056207,4.55829],[98.056285,4.558247],[98.056364,4.558202],[98.05644,4.558154],[98.056512,4.5581],[98.056584,4.558046],[98.056657,4.557992],[98.056724,4.557932],[98.056792,4.557873],[98.056866,4.557821],[98.056945,4.557778],[98.057025,4.557736],[98.057109,4.557705],[98.057186,4.557659],[98.057261,4.557608],[98.057334,4.557555],[98.057403,4.557497],[98.057469,4.557435],[98.057536,4.557376],[98.057607,4.557319],[98.057691,4.55729],[98.057775,4.557259],[98.057852,4.557214],[98.057917,4.557152],[98.057949,4.557069],[98.057961,4.556979],[98.057975,4.55689],[98.058007,4.556806],[98.058049,4.556727],[98.058099,4.556651],[98.058148,4.556575],[98.058195,4.556498],[98.058238,4.556418],[98.058277,4.556337],[98.058318,4.556256],[98.058362,4.556177],[98.058405,4.556098],[98.058451,4.556021],[98.058524,4.555969],[98.058598,4.555917],[98.058672,4.555865],[98.058754,4.555828],[98.058837,4.555792],[98.05892,4.555759],[98.058992,4.555704],[98.059063,4.555648],[98.059122,4.55558],[98.059175,4.555507],[98.059237,4.555442],[98.059299,4.555377],[98.059359,4.55531],[98.059429,4.555256],[98.059517,4.555237],[98.059606,4.555232],[98.059696,4.555237],[98.059785,4.555255],[98.059861,4.555303],[98.059936,4.555352],[98.060008,4.555408],[98.06008,4.555462],[98.060155,4.555512],[98.060184,4.555532],[98.060247,4.555596],[98.060311,4.55566],[98.060375,4.555724],[98.060461,4.555752],[98.060548,4.55577],[98.060638,4.55577],[98.060727,4.55578],[98.060814,4.555802],[98.0609,4.555831],[98.060987,4.555851],[98.061077,4.555855],[98.061165,4.555836],[98.061252,4.555818],[98.06133,4.555864],[98.061407,4.555911],[98.061457,4.555943],[98.061483,4.55596],[98.061559,4.556008],[98.061637,4.556053],[98.061717,4.556094],[98.061798,4.556135],[98.061878,4.556176],[98.061959,4.556216],[98.062035,4.556261],[98.062061,4.556347],[98.062088,4.556434],[98.06214,4.556507],[98.062195,4.556579],[98.062255,4.556646],[98.062317,4.556712],[98.062379,4.556778],[98.06244,4.556844],[98.062507,4.556904],[98.062577,4.556961],[98.062648,4.557017],[98.062719,4.557072],[98.062797,4.557118],[98.062875,4.557163],[98.062953,4.557209],[98.063031,4.557255],[98.063111,4.557295],[98.063195,4.557328],[98.063279,4.557361],[98.063363,4.557394],[98.063447,4.557427],[98.063518,4.557482],[98.063585,4.557541],[98.063589,4.557631],[98.063592,4.557721],[98.063595,4.557812],[98.063559,4.557894],[98.063522,4.557977],[98.063486,4.55806],[98.063437,4.558135],[98.06338,4.558205],[98.063324,4.558276],[98.063267,4.558346],[98.06321,4.558416],[98.063154,4.558486],[98.063099,4.558558],[98.063044,4.55863],[98.06299,4.558702],[98.062935,4.558774],[98.06289,4.558834],[98.06288,4.558846],[98.062824,4.558917],[98.062761,4.558981],[98.062698,4.559046],[98.062635,4.559111],[98.062572,4.559176],[98.06251,4.559241],[98.062446,4.559304],[98.062379,4.559365],[98.062313,4.559427],[98.062246,4.559488],[98.06218,4.559549],[98.062113,4.55961],[98.062047,4.559671],[98.06198,4.559732],[98.061914,4.559793],[98.061847,4.559854],[98.061781,4.559915],[98.061714,4.559976],[98.061638,4.560024],[98.061561,4.560071],[98.061484,4.560118],[98.061407,4.560165],[98.06133,4.560212],[98.061253,4.560259],[98.061176,4.560306],[98.061099,4.560353],[98.061019,4.560395],[98.060939,4.560436],[98.060859,4.560478],[98.060778,4.560519],[98.060698,4.56056],[98.060618,4.560601],[98.060538,4.560643],[98.060457,4.560682],[98.060373,4.560717],[98.06029,4.560751],[98.060206,4.560785],[98.060123,4.560819],[98.060039,4.560851],[98.059953,4.560879],[98.059867,4.560907],[98.059782,4.560936],[98.059696,4.560964],[98.059611,4.560992],[98.059525,4.561021],[98.059439,4.561049],[98.059354,4.561077],[98.059271,4.561114],[98.059191,4.561155],[98.059111,4.561197],[98.059031,4.561239],[98.058951,4.56128],[98.058871,4.561322],[98.058791,4.561364],[98.058708,4.561398],[98.058624,4.561431],[98.05854,4.561463],[98.058456,4.561496],[98.058377,4.561527],[98.058372,4.561529],[98.058288,4.561561],[98.058204,4.561594],[98.05812,4.561627],[98.058036,4.561659],[98.057949,4.561685],[98.057863,4.56171],[98.057776,4.561735],[98.05769,4.561761],[98.057603,4.561786],[98.057517,4.561812],[98.057429,4.561831],[98.057339,4.56184],[98.05725,4.561849],[98.05716,4.561858],[98.05707,4.561867],[98.05698,4.561876],[98.056891,4.561885],[98.056801,4.561895],[98.056711,4.5619],[98.056621,4.561899],[98.056531,4.561898],[98.056441,4.561897],[98.056351,4.561896],[98.056261,4.561895],[98.056171,4.561891],[98.056083,4.56187],[98.055996,4.561848],[98.055908,4.561827],[98.055832,4.561779],[98.055768,4.561717],[98.055719,4.561642],[98.055693,4.561556],[98.055688,4.561466]]],[[[98.063916,4.551019],[98.063918,4.550929],[98.063919,4.550838],[98.063938,4.550752],[98.063976,4.550669],[98.064014,4.550588],[98.064069,4.550516],[98.064084,4.550503],[98.064135,4.550455],[98.064203,4.550397],[98.06425,4.550319],[98.064284,4.550236],[98.064323,4.550154],[98.064371,4.550078],[98.064424,4.550005],[98.064473,4.549929],[98.064524,4.549856],[98.064606,4.549817],[98.064688,4.549779],[98.064764,4.549822],[98.064799,4.549903],[98.064823,4.54999],[98.064839,4.550078],[98.064823,4.550167],[98.064806,4.550256],[98.064784,4.550343],[98.06477,4.55043],[98.064808,4.550512],[98.064842,4.550596],[98.064873,4.550681],[98.064868,4.550769],[98.064858,4.550847],[98.064856,4.550856],[98.064862,4.550871],[98.064892,4.55094],[98.064941,4.551012],[98.065017,4.551058],[98.065099,4.551027],[98.065159,4.550961],[98.065216,4.550891],[98.065277,4.550824],[98.065339,4.550758],[98.065412,4.550721],[98.065502,4.550726],[98.065588,4.550744],[98.065664,4.550792],[98.065744,4.550821],[98.065833,4.550806],[98.065921,4.550804],[98.066007,4.550832],[98.066093,4.550859],[98.066177,4.55087],[98.066238,4.550811],[98.06627,4.550727],[98.066314,4.550653],[98.066393,4.55061],[98.066452,4.55055],[98.066477,4.550464],[98.066447,4.550379],[98.066408,4.5503],[98.066339,4.550242],[98.066255,4.550243],[98.066167,4.550262],[98.066078,4.550279],[98.06599,4.550296],[98.065905,4.550277],[98.065831,4.550231],[98.065783,4.550154],[98.065748,4.550072],[98.065722,4.549985],[98.065703,4.549897],[98.065684,4.54981],[98.065628,4.54974],[98.065575,4.549666],[98.065525,4.549591],[98.065516,4.549501],[98.065513,4.549411],[98.065513,4.549321],[98.065508,4.54923],[98.065502,4.54914],[98.065495,4.54905],[98.065476,4.548962],[98.065455,4.548874],[98.065428,4.548787],[98.065401,4.548701],[98.065375,4.548615],[98.06535,4.548528],[98.065308,4.54845],[98.065253,4.548377],[98.065204,4.548302],[98.065154,4.548226],[98.065103,4.548152],[98.065051,4.548078],[98.065001,4.548003],[98.064964,4.54792],[98.064927,4.547838],[98.064888,4.547757],[98.064848,4.547675],[98.064825,4.547589],[98.064808,4.5475],[98.064791,4.547411],[98.064787,4.547379],[98.064779,4.547321],[98.064773,4.547232],[98.064791,4.547143],[98.064808,4.547054],[98.064841,4.54697],[98.064874,4.546886],[98.064908,4.546803],[98.064924,4.54678],[98.064973,4.546704],[98.065017,4.546626],[98.065073,4.546555],[98.065135,4.546489],[98.065207,4.546438],[98.065289,4.5464],[98.065377,4.546383],[98.065466,4.546365],[98.065555,4.546352],[98.065645,4.546343],[98.065734,4.546334],[98.065824,4.546329],[98.065914,4.546324],[98.066004,4.54632],[98.066094,4.546316],[98.066184,4.546322],[98.066273,4.546336],[98.066359,4.546364],[98.066442,4.546398],[98.066524,4.546435],[98.066524,4.546435],[98.066606,4.546472],[98.06669,4.546506],[98.066773,4.54654],[98.066804,4.546553],[98.066857,4.546575],[98.066927,4.54663],[98.066995,4.54669],[98.067061,4.546752],[98.067126,4.546814],[98.067192,4.546876],[98.067257,4.546938],[98.067323,4.547],[98.06739,4.547061],[98.067461,4.547115],[98.067533,4.54717],[98.067605,4.547225],[98.067676,4.54728],[98.067748,4.547335],[98.067819,4.54739],[98.067893,4.547443],[98.067966,4.547495],[98.06804,4.547547],[98.068115,4.547596],[98.068192,4.547644],[98.068269,4.547691],[98.068343,4.547743],[98.068414,4.547798],[98.068476,4.547863],[98.06853,4.547935],[98.06859,4.548003],[98.068665,4.548043],[98.068753,4.548064],[98.068839,4.548091],[98.068922,4.548124],[98.069005,4.548159],[98.069095,4.548163],[98.069281,4.548351],[98.069302,4.548461],[98.069305,4.548477],[98.069258,4.548603],[98.069171,4.548706],[98.069077,4.548802],[98.069001,4.548864],[98.068972,4.548888],[98.068869,4.548976],[98.068773,4.549071],[98.068677,4.549166],[98.068562,4.549238],[98.068446,4.549309],[98.068331,4.549379],[98.068234,4.549473],[98.06814,4.54957],[98.068045,4.549667],[98.06795,4.549764],[98.067853,4.549858],[98.067756,4.549953],[98.067675,4.550032],[98.067659,4.550047],[98.06756,4.55014],[98.067459,4.55023],[98.067357,4.55032],[98.067256,4.55041],[98.067166,4.550509],[98.06709,4.550621],[98.067013,4.550733],[98.066937,4.550845],[98.066861,4.550957],[98.066793,4.551075],[98.066729,4.551194],[98.066664,4.551313],[98.066601,4.551433],[98.066548,4.551558],[98.066534,4.551591],[98.066495,4.551683],[98.066444,4.551808],[98.066399,4.551936],[98.066354,4.552064],[98.06631,4.552192],[98.066295,4.552232],[98.066263,4.552324],[98.066193,4.552381],[98.066124,4.552439],[98.066059,4.552501],[98.066012,4.552578],[98.065965,4.552655],[98.065918,4.552732],[98.065869,4.552806],[98.065784,4.552836],[98.065701,4.552872],[98.065622,4.552915],[98.065543,4.552959],[98.065462,4.552998],[98.06538,4.553036],[98.06531,4.553091],[98.065243,4.553152],[98.065178,4.553215],[98.065115,4.55328],[98.065058,4.553349],[98.065016,4.553429],[98.064975,4.55351],[98.064926,4.553569],[98.064845,4.553531],[98.064859,4.553454],[98.064894,4.553371],[98.064932,4.553289],[98.064931,4.553219],[98.064874,4.553188],[98.064852,4.553175],[98.064774,4.553132],[98.064735,4.553118],[98.064688,4.553103],[98.064603,4.553075],[98.064517,4.553047],[98.064431,4.553019],[98.064345,4.552991],[98.064285,4.552933],[98.064264,4.552888],[98.064247,4.552852],[98.064253,4.552762],[98.064267,4.552672],[98.064288,4.552584],[98.064276,4.552495],[98.064266,4.552405],[98.06425,4.552318],[98.064206,4.552239],[98.064171,4.552156],[98.06413,4.552075],[98.064092,4.551993],[98.064058,4.551909],[98.064037,4.551821],[98.064026,4.551732],[98.064015,4.551642],[98.064007,4.551552],[98.063999,4.551462],[98.063988,4.551372],[98.063977,4.551282],[98.063956,4.551194],[98.063931,4.551107],[98.063916,4.551019]]],[[[98.080035,4.524863],[98.080044,4.524773],[98.080059,4.524684],[98.080083,4.524597],[98.080108,4.52451],[98.08016,4.524437],[98.080228,4.524405],[98.080316,4.524426],[98.080365,4.524497],[98.080403,4.524578],[98.080403,4.524668],[98.080403,4.524759],[98.080435,4.524842],[98.080471,4.524926],[98.080531,4.524991],[98.080596,4.525054],[98.080653,4.525124],[98.080703,4.525199],[98.08075,4.525276],[98.080797,4.525354],[98.080839,4.525433],[98.08088,4.525514],[98.080922,4.525594],[98.080951,4.525679],[98.080969,4.525767],[98.080987,4.525856],[98.081005,4.525945],[98.081023,4.526033],[98.081041,4.526122],[98.081063,4.52621],[98.081084,4.526297],[98.081106,4.526385],[98.081128,4.526473],[98.081156,4.526559],[98.081185,4.526645],[98.081213,4.52673],[98.081253,4.52681],[98.081306,4.526884],[98.081363,4.526954],[98.081421,4.527023],[98.081477,4.527093],[98.081503,4.52718],[98.081503,4.52727],[98.081503,4.52736],[98.0815,4.527451],[98.081495,4.527541],[98.081486,4.527631],[98.081461,4.527718],[98.081435,4.527804],[98.081434,4.527831],[98.081431,4.527921],[98.081415,4.528009],[98.081385,4.528094],[98.08133,4.528165],[98.081265,4.528228],[98.081196,4.528286],[98.081123,4.528338],[98.081042,4.528372],[98.080953,4.52836],[98.08087,4.528333],[98.080799,4.528277],[98.080735,4.528214],[98.080677,4.528145],[98.080645,4.52806],[98.080594,4.527991],[98.080522,4.527936],[98.080464,4.527867],[98.080425,4.527788],[98.080401,4.5277],[98.080405,4.527612],[98.080436,4.52753],[98.080493,4.527459],[98.080541,4.527384],[98.080574,4.5273],[98.08058,4.52721],[98.08058,4.52712],[98.080573,4.52703],[98.080565,4.52694],[98.080555,4.52685],[98.080532,4.526762],[98.080516,4.526674],[98.080509,4.526584],[98.080534,4.526499],[98.08057,4.526416],[98.080572,4.526326],[98.080558,4.526238],[98.080539,4.52615],[98.080565,4.526064],[98.080591,4.525977],[98.080617,4.525891],[98.080644,4.525804],[98.080625,4.525719],[98.080594,4.525634],[98.080555,4.525553],[98.080516,4.525471],[98.080478,4.525389],[98.080439,4.525307],[98.080385,4.525237],[98.080317,4.525179],[98.080234,4.525144],[98.080165,4.525091],[98.080112,4.525017],[98.08006,4.524944],[98.080035,4.524863]]]]}}]}